NORAD_CAT_ID,OBJECT_NAME,OBJECT_TYPE,EPOCH,MEAN_MOTION,ECCENTRICITY,INCLINATION,RA_OF_ASC_NODE,ARG_OF_PERICENTER,MEAN_ANOMALY,BSTAR,MEAN_MOTION_DOT,MEAN_MOTION_DDOT,TLE_LINE0,TLE_LINE1,TLE_LINE2,SEMIMAJOR_AXIS,PERIOD,APOGEE,PERIGEE,DECAYED
51860.0,STARLINK-3559,PAYLOAD,2022-12-23 16:14:23,15.08838041,0.0002988,53.2162,230.4903,26.22300000000001,333.8913,0.00012056,1.631e-05,0.0,0 STARLINK-3559,1 51860U 22022J   22357.67665562  .00001631  00000-0  12056-3 0  9998,2 51860  53.2162 230.4903 0002988  26.2230 333.8913 15.08838041 46181,6917.886,95.438,541.818,537.684,0.0
51860.0,STARLINK-3559,PAYLOAD,2022-12-24 08:08:14,15.08842359,0.0003027,53.216,227.5169,26.4028,333.7117,0.00016319,2.31e-05,0.0,0 STARLINK-3559,1 51860U 22022J   22358.33905553  .00002310  00000-0  16319-3 0  9990,2 51860  53.2160 227.5169 0003027  26.4028 333.7117 15.08842359 46285,6917.873000000001,95.437,541.832,537.644,0.0
51860.0,STARLINK-3559,PAYLOAD,2022-12-24 22:26:42,15.08848995,0.0002989,53.2156,224.8404,26.6785,333.436,0.00026852,3.989e-05,0.0,0 STARLINK-3559,1 51860U 22022J   22358.93521162  .00003989  00000-0  26852-3 0  9992,2 51860  53.2156 224.8404 0002989  26.6785 333.4360 15.08848995 46379,6917.853,95.437,541.786,537.65,0.0
51860.0,STARLINK-3559,PAYLOAD,2022-12-25 03:12:52,15.08838462,0.0003129,53.2158,223.9485,27.6066,332.5091,4.3949e-05,4.11e-06,0.0,0 STARLINK-3559,1 51860U 22022J   22359.13393563  .00000411  00000-0  43949-4 0  9991,2 51860  53.2158 223.9485 0003129  27.6066 332.5091 15.08838462 46403,6917.885,95.438,541.915,537.585,0.0
51860.0,STARLINK-3559,PAYLOAD,2022-12-25 07:59:01,15.08838446,0.0003048,53.216,223.0562,28.5703,331.5456,3.2724e-05,2.32e-06,0.0,0 STARLINK-3559,1 51860U 22022J   22359.33265507  .00000232  00000-0  32724-4 0  9999,2 51860  53.2160 223.0562 0003048  28.5703 331.5456 15.08838446 46430,6917.885,95.438,541.859,537.6419999999998,0.0
51860.0,STARLINK-3559,PAYLOAD,2022-12-25 20:42:06,15.08842494,0.000301,53.2161,220.6771,28.9098,331.2061,0.00013948,1.932e-05,0.0,0 STARLINK-3559,1 51860U 22022J   22359.86257398  .00001932  00000-0  13948-3 0  9990,2 51860  53.2161 220.6771 0003010  28.9098 331.2061 15.08842494 46512,6917.873000000001,95.437,541.82,537.655,0.0
51860.0,STARLINK-3559,PAYLOAD,2022-12-26 07:49:48,15.08831125,0.0002964,53.2156,218.5959,30.3138,329.8025,-0.00013932,-2.505e-05,0.0,0 STARLINK-3559,1 51860U 22022J   22360.32625820 -.00002505  00000-0 -13932-3 0  9994,2 51860  53.2156 218.5959 0002964  30.3138 329.8025 15.08831125 46588,6917.908,95.438,541.823,537.722,0.0
51860.0,STARLINK-3559,PAYLOAD,2022-12-26 20:32:53,15.08838855,0.0003025,53.2158,216.217,30.2672,329.8495,1.5812e-05,-3.7e-07,0.0,0 STARLINK-3559,1 51860U 22022J   22360.85617876 -.00000037  00000-0  15812-4 0  9991,2 51860  53.2158 216.2170 0003025  30.2672 329.8495 15.08838855 46668,6917.884,95.438,541.842,537.656,0.0
51860.0,STARLINK-3559,PAYLOAD,2022-12-26 22:08:16,15.08840322,0.0003064,53.2157,215.9197,28.6317,331.4843,4.4827e-05,4.25e-06,0.0,0 STARLINK-3559,1 51860U 22022J   22360.92241828  .00000425  00000-0  44827-4 0  9997,2 51860  53.2157 215.9197 0003064  28.6317 331.4843 15.08840322 46671,6917.879,95.438,541.864,537.625,0.0
51860.0,STARLINK-3559,PAYLOAD,2022-12-27 07:40:35,15.08841551,0.0003069,53.2158,214.1354,30.0638,330.0529,0.00015,2.1e-05,0.0,0 STARLINK-3559,1 51860U 22022J   22361.31985859  .00002100  00000-0  15000-3 0  9992,2 51860  53.2158 214.1354 0003069  30.0638 330.0529 15.08841551 46734,6917.876,95.437,541.864,537.618,0.0
51860.0,STARLINK-3559,PAYLOAD,2022-12-27 14:02:08,15.08845633,0.0003067,53.2158,212.9459,30.699,329.4181,0.00023252,3.415e-05,0.0,0 STARLINK-3559,1 51860U 22022J   22361.58481751  .00003415  00000-0  23252-3 0  9991,2 51860  53.2158 212.9459 0003067  30.6990 329.4181 15.08845633 46776,6917.863,95.437,541.85,537.606,0.0
51860.0,STARLINK-3559,PAYLOAD,2022-12-27 23:34:26,15.08850412,0.0003083,53.2153,211.1617,31.3715,328.746,0.00033632,5.07e-05,0.0,0 STARLINK-3559,1 51860U 22022J   22361.98225560  .00005070  00000-0  33632-3 0  9991,2 51860  53.2153 211.1617 0003083  31.3715 328.7460 15.08850412 46839,6917.849,95.437,541.846,537.581,0.0
51860.0,STARLINK-3559,PAYLOAD,2022-12-28 17:03:41,15.08845671,0.0003137,53.2154,207.8906,32.3052,327.8132,0.00019634,2.838e-05,0.0,0 STARLINK-3559,1 51860U 22022J   22362.71089606  .00002838  00000-0  19634-3 0  9997,2 51860  53.2154 207.8906 0003137  32.3052 327.8132 15.08845671 46947,6917.863,95.437,541.898,537.558,0.0
51860.0,STARLINK-3559,PAYLOAD,2022-12-29 12:08:19,15.08834177,0.0002948,53.216,204.3217,32.3497,327.7676,-4.8399e-05,-1.059e-05,0.0,0 STARLINK-3559,1 51860U 22022J   22363.50578128 -.00001059  00000-0 -48399-4 0  9994,2 51860  53.2160 204.3217 0002948  32.3497 327.7676 15.08834177 47068,6917.898,95.438,541.803,537.724,0.0
51860.0,STARLINK-3559,PAYLOAD,2022-12-29 20:05:15,15.08826794,0.0003007,53.2164,202.8353,32.923,327.1949,4.4082e-05,4.13e-06,0.0,0 STARLINK-3559,1 51860U 22022J   22363.83698853  .00000413  00000-0  44082-4 0  9994,2 51860  53.2164 202.8353 0003007  32.9230 327.1949 15.08826794 47113,6917.920999999999,95.438,541.866,537.706,0.0
51860.0,STARLINK-3559,PAYLOAD,2022-12-30 11:59:06,15.08832805,0.0003114,53.2163,199.8619,33.7088,326.4101,1.5255e-05,-4.6e-07,0.0,0 STARLINK-3559,1 51860U 22022J   22364.49938538 -.00000046  00000-0  15255-4 0  9997,2 51860  53.2163 199.8619 0003114  33.7088 326.4101 15.08832805 47214,6917.901999999999,95.438,541.922,537.613,0.0
51860.0,STARLINK-3559,PAYLOAD,2022-12-31 13:25:16,15.08836284,0.000319,53.2163,195.1039,35.1818,324.9384,0.00015551,2.187e-05,0.0,0 STARLINK-3559,1 51860U 22022J   22365.55922287  .00002187  00000-0  15551-3 0  9994,2 51860  53.2163 195.1039 0003190  35.1818 324.9384 15.08836284 47378,6917.892,95.438,541.964,537.55,0.0
51860.0,STARLINK-3559,PAYLOAD,2022-12-31 16:36:03,15.08838803,0.0003201,53.2163,194.5092,35.5524,324.5681,0.00017259,2.459e-05,0.0,0 STARLINK-3559,1 51860U 22022J   22365.69170148  .00002459  00000-0  17259-3 0  9999,2 51860  53.2163 194.5092 0003201  35.5524 324.5681 15.08838803 47398,6917.884,95.438,541.9630000000002,537.535,0.0
51860.0,STARLINK-3559,PAYLOAD,2023-01-01 11:40:41,15.08835845,0.0003276999999999,53.2161,190.9413,37.5694,322.5527,7.6398e-05,9.27e-06,0.0,0 STARLINK-3559,1 51860U 22022J   23001.48658784  .00000927  00000-0  76398-4 0  9999,2 51860  53.2161 190.9413 0003277  37.5694 322.5527 15.08835845 47510,6917.893,95.438,542.025,537.491,0.0
51860.0,STARLINK-3559,PAYLOAD,2023-01-01 19:37:37,15.08835644,0.0003263999999999,53.2163,189.4543,37.7782,322.3439,5.7172e-05,6.21e-06,0.0,0 STARLINK-3559,1 51860U 22022J   23001.81778957  .00000621  00000-0  57172-4 0  9991,2 51860  53.2163 189.4543 0003264  37.7782 322.3439 15.08835644 47567,6917.894,95.438,542.0169999999998,537.501,0.0
51860.0,STARLINK-3559,PAYLOAD,2023-01-02 13:06:51,15.08841259,0.0003249,53.2164,186.183,38.5684,321.5540000000001,3.8396e-05,3.22e-06,0.0,0 STARLINK-3559,1 51860U 22022J   23002.54642666  .00000322  00000-0  38396-4 0  9994,2 51860  53.2164 186.1830 0003249  38.5684 321.5540 15.08841259 47679,6917.877,95.437,541.989,537.494,0.0
51860.0,STARLINK-3559,PAYLOAD,2023-01-02 16:17:37,15.08842562,0.0003245,53.2164,185.5883,38.915,321.2075,4.5903e-05,4.42e-06,0.0,0 STARLINK-3559,1 51860U 22022J   23002.67890518  .00000442  00000-0  45903-4 0  9994,2 51860  53.2164 185.5883 0003245  38.9150 321.2075 15.08842562 47698,6917.873000000001,95.437,541.982,537.493,0.0
51860.0,STARLINK-3559,PAYLOAD,2023-01-02 19:28:23,15.08845053,0.0003253999999999,53.2165,184.9936,38.6,321.5225,1.6314e-05,-2.9e-07,0.0,0 STARLINK-3559,1 51860U 22022J   23002.81138404 -.00000029  00000-0  16314-4 0  9995,2 51860  53.2165 184.9936 0003254  38.6000 321.5225 15.08845053 47713,6917.865,95.437,541.981,537.479,0.0
51860.0,STARLINK-3559,PAYLOAD,2023-01-03 12:57:37,15.08843722,0.0003288,53.2168,181.7224,39.6362,320.487,0.00014455,2.013e-05,0.0,0 STARLINK-3559,1 51860U 22022J   23003.54001993  .00002013  00000-0  14455-3 0  9995,2 51860  53.2168 181.7224 0003288  39.6362 320.4870 15.08843722 47827,6917.869000000002,95.437,542.009,537.4590000000002,0.0
51860.0,STARLINK-3559,PAYLOAD,2023-01-03 20:54:33,15.08846565,0.0003346,53.2169,180.2354,39.9509,320.1729,0.00013009,1.783e-05,0.0,0 STARLINK-3559,1 51860U 22022J   23003.87121757  .00001783  00000-0  13009-3 0  9999,2 51860  53.2169 180.2354 0003346  39.9509 320.1729 15.08846565 47870,6917.86,95.437,542.04,537.411,0.0
51860.0,STARLINK-3559,PAYLOAD,2023-01-04 11:13:02,15.08839921,0.0003225,53.2169,177.5593,40.113,320.01,4.2503e-05,3.88e-06,0.0,0 STARLINK-3559,1 51860U 22022J   23004.46738460  .00000388  00000-0  42503-4 0  9992,2 51860  53.2169 177.5593 0003225  40.1130 320.0100 15.08839921 47964,6917.880999999999,95.438,541.977,537.515,0.0
51860.0,STARLINK-3559,PAYLOAD,2023-01-04 17:34:34,15.08846176,0.0003372,53.2168,176.3699,42.8197,317.3057,9.0895e-05,1.158e-05,0.0,0 STARLINK-3559,1 51860U 22022J   23004.73233936  .00001158  00000-0  90895-4 0  9993,2 51860  53.2168 176.3699 0003372  42.8197 317.3057 15.08846176 48008,6917.861999999999,95.437,542.059,537.394,0.0
51860.0,STARLINK-3559,PAYLOAD,2023-01-05 04:42:15,15.08852393,0.0003396999999999,53.2169,174.2888,41.7871,318.3381,9.3616e-05,1.202e-05,0.0,0 STARLINK-3559,1 51860U 22022J   23005.19601299  .00001202  00000-0  93616-4 0  9999,2 51860  53.2169 174.2888 0003397  41.7871 318.3381 15.08852393 48076,6917.843000000003,95.437,542.057,537.3580000000002,0.0
51860.0,STARLINK-3559,PAYLOAD,2023-01-05 09:28:24,15.08854409,0.0003443,53.2167,173.39700000000005,39.1059,321.0181,0.00013435,1.851e-05,0.0,0 STARLINK-3559,1 51860U 22022J   23005.39472948  .00001851  00000-0  13435-3 0  9998,2 51860  53.2167 173.3970 0003443  39.1059 321.0181 15.08854409 48100,6917.8359999999975,95.437,542.0830000000002,537.32,0.0
